$$SOE
2459580.500000000, A.D. 2022-Jan-01 00:00:00.0000, 2.734633293632731E+08, 2.311026264753582E+08, -4.188618923706298E+07,
2459587.500000000, A.D. 2022-Jan-08 00:00:00.0000, 2.656966912951637E+08, 2.404714077497101E+08, -4.308283227667787E+07,
2459594.500000000, A.D. 2022-Jan-15 00:00:00.0000, 2.576557733095604E+08, 2.495918999862642E+08, -4.423499757127964E+07,
2459601.500000000, A.D. 2022-Jan-22 00:00:00.0000, 2.493499826615124E+08, 2.584557599344383E+08, -4.534168583741290E+07,
2459608.500000000, A.D. 2022-Jan-29 00:00:00.0000, 2.407890076972237E+08, 2.670550687194952E+08, -4.640196835117018E+07,
2459615.500000000, A.D. 2022-Feb-05 00:00:00.0000, 2.319827914048237E+08, 2.753823408318971E+08, -4.741498760099623E+07,
2459622.500000000, A.D. 2022-Feb-12 00:00:00.0000, 2.229415068786309E+08, 2.834305304085120E+08, -4.837995797355578E+07,
2459629.500000000, A.D. 2022-Feb-19 00:00:00.0000, 2.136755335034264E+08, 2.911930371808721E+08, -4.929616616236431E+07,
2459636.500000000, A.D. 2022-Feb-26 00:00:00.0000, 2.041954326728121E+08, 2.986637113881672E+08, -5.016297124404855E+07,
2459643.500000000, A.D. 2022-Mar-05 00:00:00.0000, 1.945119233233744E+08, 3.058368570711811E+08, -5.097980449547274E+07,
2459650.500000000, A.D. 2022-Mar-12 00:00:00.0000, 1.846358576236149E+08, 3.127072337243180E+08, -5.174616898720534E+07,
2459657.500000000, A.D. 2022-Mar-19 00:00:00.0000, 1.745781969989954E+08, 3.192700563854172E+08, -5.246163896848096E+07,
2459664.500000000, A.D. 2022-Mar-26 00:00:00.0000, 1.643499886181121E+08, 3.255209942170752E+08, -5.312585905808307E+07,
2459671.500000000, A.D. 2022-Apr-02 00:00:00.0000, 1.539623425021314E+08, 3.314561675904801E+08, -5.373854326461147E+07,
2459678.500000000, A.D. 2022-Apr-09 00:00:00.0000, 1.434264096152856E+08, 3.370721437501556E+08, -5.429947387414962E+07,
2459685.500000000, A.D. 2022-Apr-16 00:00:00.0000, 1.327533613715764E+08, 3.423659317933809E+08, -5.480850019913907E+07,
2459692.500000000, A.D. 2022-Apr-23 00:00:00.0000, 1.219543693595866E+08, 3.473349781292822E+08, -5.526553699810474E+07,
2459699.500000000, A.D. 2022-Apr-30 00:00:00.0000, 1.110405834720540E+08, 3.519771602510405E+08, -5.567056259054293E+07,
2459706.500000000, A.D. 2022-May-07 00:00:00.0000, 1.000231115484063E+08, 3.562907769374989E+08, -5.602361712310062E+07,
2459713.500000000, A.D. 2022-May-14 00:00:00.0000, 8.891300196435378E+07, 3.602745380157647E+08, -5.632480088264941E+07,
2459720.500000000, A.D. 2022-May-21 00:00:00.0000, 7.772122717220700E+07, 3.639275545293024E+08, -5.657427242196126E+07,
2459727.500000000, A.D. 2022-May-28 00:00:00.0000, 6.645866773637177E+07, 3.672493284384254E+08, -5.677224654544231E+07,
2459734.500000000, A.D. 2022-Jun-04 00:00:00.0000, 5.513609715693185E+07, 3.702397416267310E+08, -5.691899221907793E+07,
2459741.500000000, A.D. 2022-Jun-11 00:00:00.0000, 4.376416763491127E+07, 3.728990443004595E+08, -5.701483043055019E+07,
2459748.500000000, A.D. 2022-Jun-18 00:00:00.0000, 3.235339681999238E+07, 3.752278428763247E+08, -5.706013201429294E+07,
2459755.500000000, A.D. 2022-Jun-25 00:00:00.0000, 2.091415556572110E+07, 3.772270874038824E+08, -5.705531545853126E+07,
2459762.500000000, A.D. 2022-Jul-02 00:00:00.0000, 9.456656815742170E+06, 3.788980585326180E+08, -5.700084472292057E+07,
2459769.500000000, A.D. 2022-Jul-09 00:00:00.0000, -2.009054004894422E+06, 3.802423542735011E+08, -5.689722709850901E+07,
2459776.500000000, A.D. 2022-Jul-16 00:00:00.0000, -1.347310716925235E+07, 3.812618777084159E+08, -5.674501102681825E+07,
2459783.500000000, A.D. 2022-Jul-23 00:00:00.0000, -2.492581761923310E+07, 3.819588257908973E+08, -5.654478367976663E+07,
2459790.500000000, A.D. 2022-Jul-30 00:00:00.0000, -3.635769466968336E+07, 3.823356759392217E+08, -5.629716858885203E+07,
2459797.500000000, A.D. 2022-Aug-06 00:00:00.0000, -4.775944888134607E+07, 3.823951711247428E+08, -5.600282360744178E+07,
2459804.500000000, A.D. 2022-Aug-13 00:00:00.0000, -5.912199695745832E+07, 3.821403062648553E+08, -5.566243891355659E+07,
2459811.500000000, A.D. 2022-Aug-20 00:00:00.0000, -7.043646626467746E+07, 3.815743154602886E+08, -5.527673495514801E+07,
2459818.500000000, A.D. 2022-Aug-27 00:00:00.0000, -8.169419894719735E+07, 3.807006593859727E+08, -5.484646040633456E+07,
2459825.500000000, A.D. 2022-Sep-03 00:00:00.0000, -9.288675542760020E+07, 3.795230127588192E+08, -5.437239016939972E+07,
2459832.500000000, A.D. 2022-Sep-10 00:00:00.0000, -1.040059172477217E+08, 3.780452519399210E+08, -5.385532343280365E+07,
2459839.500000000, A.D. 2022-Sep-17 00:00:00.0000, -1.150436892625996E+08, 3.762714427020940E+08, -5.329608179265261E+07,
2459846.500000000, A.D. 2022-Sep-24 00:00:00.0000, -1.259923011671941E+08, 3.742058281412193E+08, -5.269550745159005E+07,
2459853.500000000, A.D. 2022-Oct-01 00:00:00.0000, -1.368442081542532E+08, 3.718528167330890E+08, -5.205446152206808E+07,
2459860.500000000, A.D. 2022-Oct-08 00:00:00.0000, -1.475920903341908E+08, 3.692169710765748E+08, -5.137382243069541E+07,
2459867.500000000, A.D. 2022-Oct-15 00:00:00.0000, -1.582288518874697E+08, 3.663029985381775E+08, -5.065448424189152E+07,
2459874.500000000, A.D. 2022-Oct-22 00:00:00.0000, -1.687476221671132E+08, 3.631157421271423E+08, -4.989735483962141E+07,
2459881.500000000, A.D. 2022-Oct-29 00:00:00.0000, -1.791417562873892E+08, 3.596601690124530E+08, -4.910335440727988E+07,
2459888.500000000, A.D. 2022-Nov-05 00:00:00.0000, -1.894048331379344E+08, 3.559413594261711E+08, -4.827341417368093E+07,
2459895.500000000, A.D. 2022-Nov-12 00:00:00.0000, -1.995306528250210E+08, 3.519644972276868E+08, -4.740847514250018E+07,
2459902.500000000, A.D. 2022-Nov-19 00:00:00.0000, -2.095132342913084E+08, 3.477348611779823E+08, -4.650948681704122E+07,
2459909.500000000, A.D. 2022-Nov-26 00:00:00.0000, -2.193468128829513E+08, 3.432578165257595E+08, -4.557740597581041E+07,
2459916.500000000, A.D. 2022-Dec-03 00:00:00.0000, -2.290258377284827E+08, 3.385388068916861E+08, -4.461319551395848E+07,
2459923.500000000, A.D. 2022-Dec-10 00:00:00.0000, -2.385449689130102E+08, 3.335833464661409E+08, -4.361782335204595E+07,
2459930.500000000, A.D. 2022-Dec-17 00:00:00.0000, -2.478990744504816E+08, 3.283970124909304E+08, -4.259226141508386E+07,
2459937.500000000, A.D. 2022-Dec-24 00:00:00.0000, -2.570832269704885E+08, 3.229854379534056E+08, -4.153748469571844E+07,
2459944.500000000, A.D. 2022-Dec-31 00:00:00.0000, -2.660926997862598E+08, 3.173543045935649E+08, -4.045447042384623E+07,
2459951.500000000, A.D. 2023-Jan-07 00:00:00.0000, -2.749229622443314E+08, 3.115093371787071E+08, -3.934419727347668E+07,
2459958.500000000, A.D. 2023-Jan-14 00:00:00.0000, -2.835696763455518E+08, 3.054562995352036E+08, -3.820764438435769E+07,
2459965.500000000, A.D. 2023-Jan-21 00:00:00.0000, -2.920286953011715E+08, 2.992009891581336E+08, -3.704579039687920E+07,
2459972.500000000, A.D. 2023-Jan-28 00:00:00.0000, -3.002960603702240E+08, 2.927492301918148E+08, -3.585961284952314E+07,
2459979.500000000, A.D. 2023-Feb-04 00:00:00.0000, -3.083679962036105E+08, 2.861068677953909E+08, -3.465008766950022E+07,
2459986.500000000, A.D. 2023-Feb-11 00:00:00.0000, -3.162409065075295E+08, 2.792797636900436E+08, -3.341818860614134E+07,
2459993.500000000, A.D. 2023-Feb-18 00:00:00.0000, -3.239113701032839E+08, 2.722737920542758E+08, -3.216488666647674E+07,
2460000.500000000, A.D. 2023-Feb-25 00:00:00.0000, -3.313761371333853E+08, 2.650948355933325E+08, -3.089114958799672E+07,
2460007.500000000, A.D. 2023-Mar-04 00:00:00.0000, -3.386321253246096E+08, 2.577487817895801E+08, -2.959794135435361E+07,
2460014.500000000, A.D. 2023-Mar-11 00:00:00.0000, -3.456764162917895E+08, 2.502415193233328E+08, -2.828622175473575E+07,
2460021.500000000, A.D. 2023-Mar-18 00:00:00.0000, -3.525062518466139E+08, 2.425789346044682E+08, -2.695694599347954E+07,
2460028.500000000, A.D. 2023-Mar-25 00:00:00.0000, -3.591190301180382E+08, 2.347669083578538E+08, -2.561106437056044E+07,
2460035.500000000, A.D. 2023-Apr-01 00:00:00.0000, -3.655123010682850E+08, 2.268113126461420E+08, -2.424952203779183E+07,
2460042.500000000, A.D. 2023-Apr-08 00:00:00.0000, -3.716837620277022E+08, 2.187180095448821E+08, -2.287325867226063E+07,
2460049.500000000, A.D. 2023-Apr-15 00:00:00.0000, -3.776312555937161E+08, 2.104928503548790E+08, -2.148320794145399E+07,
2460056.500000000, A.D. 2023-Apr-22 00:00:00.0000, -3.833527680901412E+08, 2.021416722926692E+08, -2.008029717369714E+07,
2460063.500000000, A.D. 2023-Apr-29 00:00:00.0000, -3.888464258520750E+08, 1.936702949020438E+08, -1.866544729804923E+07,
2460070.500000000, A.D. 2023-May-06 00:00:00.0000, -3.941104910981769E+08, 1.850845179551005E+08, -1.723957274437428E+07,
2460077.500000000, A.D. 2023-May-13 00:00:00.0000, -3.991433583709060E+08, 1.763901199381868E+08, -1.580358128554250E+07,
2460084.500000000, A.D. 2023-May-20 00:00:00.0000, -4.039435513138413E+08, 1.675928566210380E+08, -1.435837388203035E+07,
2460091.500000000, A.D. 2023-May-27 00:00:00.0000, -4.085097195965410E+08, 1.586984596691295E+08, -1.290484454799230E+07,
2460098.500000000, A.D. 2023-Jun-03 00:00:00.0000, -4.128406359342203E+08, 1.497126353162587E+08, -1.144388024123538E+07,
2460105.500000000, A.D. 2023-Jun-10 00:00:00.0000, -4.169351931827220E+08, 1.406410630764111E+08, -9.976360779747255E+06,
2460112.500000000, A.D. 2023-Jun-17 00:00:00.0000, -4.207924014223267E+08, 1.314893944283821E+08, -8.503158797033250E+06,
2460119.500000000, A.D. 2023-Jun-24 00:00:00.0000, -4.244113847113684E+08, 1.222632515221248E+08, -7.025139760054760E+06,
2460126.500000000, A.D. 2023-Jul-01 00:00:00.0000, -4.277913772564174E+08, 1.129682267276298E+08, -5.543162004210189E+06,
2460133.500000000, A.D. 2023-Jul-08 00:00:00.0000, -4.309317206731853E+08, 1.036098838404889E+08, -4.058076563624814E+06,
2460140.500000000, A.D. 2023-Jul-15 00:00:00.0000, -4.338318636167231E+08, 9.419375810719602E+07, -2.570726910095435E+06,
2460147.500000000, A.D. 2023-Jul-22 00:00:00.0000, -4.364913602601854E+08, 8.472535403053343E+07, -1.081949007245153E+06,
$$EOE